start=new Date('2022-05-21T00:00:00.000Z').valueOf();
sats=[{"TIME_SYSTEM":"UTC","MEAN_MOTION_DDOT":"0.0000000000000","ECCENTRICITY":"0.00018270","RA_OF_ASC_NODE":"232.3092","CLASSIFICATION_TYPE":"U","LAUNCH_DATE":"2022-04-21","EPHEMERIS_TYPE":"0","RCS_SIZE":"LARGE","SEMIMAJOR_AXIS":"6771.473","REV_AT_EPOCH":"130","NORAD_CAT_ID":"52264","GP_ID":"204043671","OBJECT_ID":"2022-041D","OBJECT_TYPE":"PAYLOAD","COUNTRY_CODE":"US","APOAPSIS":"394.575","MEAN_ELEMENT_THEORY":"SGP4","OBJECT_NAME":"STARLINK-3795","TLE_LINE1":"1 52264U 22041D   22140.58334491 -.00717456  00000-0 -10254-1 0  9999","TLE_LINE2":"2 52264  53.2175 232.3092 0001827  31.7340 292.9000 15.58037890  1303","DECAY_DATE":null,"SITE":"AFETR","PERIOD":"92.424","REF_FRAME":"TEME","INCLINATION":"53.2175","FILE":"3455160","CENTER_NAME":"EARTH","ARG_OF_PERICENTER":"31.7340","ELEMENT_SET_NO":"999","MEAN_MOTION":"15.58037890","EPOCH":"2022-05-20T14:00:01.000224","MEAN_MOTION_DOT":"-0.00717456","PERIAPSIS":"392.101","MEAN_ANOMALY":"292.9000","BSTAR":"-0.01025400000000"},{"GP_ID":"204050255","NORAD_CAT_ID":"52265","OBJECT_ID":"2022-041E","COUNTRY_CODE":"US","OBJECT_TYPE":"PAYLOAD","SEMIMAJOR_AXIS":"6772.941","REV_AT_EPOCH":"582","APOAPSIS":"395.904","MEAN_ELEMENT_THEORY":"SGP4","OBJECT_NAME":"STARLINK-3740","TLE_LINE1":"1 52265U 22041E   22140.91667824 -.00715067  00000-0 -10415-1 0  9991","TLE_LINE2":"2 52265  53.2175 230.7029 0001621  32.0550   3.7394 15.57531450  5820","MEAN_MOTION_DDOT":"0.0000000000000","TIME_SYSTEM":"UTC","ECCENTRICITY":"0.00016210","EPHEMERIS_TYPE":"0","RA_OF_ASC_NODE":"230.7029","CLASSIFICATION_TYPE":"U","LAUNCH_DATE":"2022-04-21","RCS_SIZE":"LARGE","MEAN_MOTION":"15.57531450","EPOCH":"2022-05-20T22:00:00.999936","MEAN_ANOMALY":"3.7394","MEAN_MOTION_DOT":"-0.00715067","PERIAPSIS":"393.708","BSTAR":"-0.01041500000000","SITE":"AFETR","PERIOD":"92.454","DECAY_DATE":null,"ARG_OF_PERICENTER":"32.0550","CENTER_NAME":"EARTH","REF_FRAME":"TEME","INCLINATION":"53.2175","FILE":"3455546","ELEMENT_SET_NO":"999"},{"EPHEMERIS_TYPE":"0","CLASSIFICATION_TYPE":"U","LAUNCH_DATE":"2022-04-21","RA_OF_ASC_NODE":"230.7108","RCS_SIZE":"MEDIUM","MEAN_MOTION_DDOT":"0.0000000000000","TIME_SYSTEM":"UTC","ECCENTRICITY":"0.00015250","OBJECT_NAME":"STARLINK-3739","TLE_LINE2":"2 52266  53.2175 230.7108 0001525  35.5468   1.0093 15.57536126  5820","TLE_LINE1":"1 52266U 22041F   22140.91667824 -.00715101  00000-0 -10414-1 0  9990","COUNTRY_CODE":"US","OBJECT_TYPE":"PAYLOAD","NORAD_CAT_ID":"52266","GP_ID":"204048053","OBJECT_ID":"2022-041F","REV_AT_EPOCH":"582","SEMIMAJOR_AXIS":"6772.927","MEAN_ELEMENT_THEORY":"SGP4","APOAPSIS":"395.825","ARG_OF_PERICENTER":"35.5468","CENTER_NAME":"EARTH","FILE":"3455439","REF_FRAME":"TEME","INCLINATION":"53.2175","ELEMENT_SET_NO":"999","PERIOD":"92.454","SITE":"AFETR","DECAY_DATE":null,"MEAN_ANOMALY":"1.0093","PERIAPSIS":"393.760","MEAN_MOTION_DOT":"-0.00715101","BSTAR":"-0.01041400000000","MEAN_MOTION":"15.57536126","EPOCH":"2022-05-20T22:00:00.999936"},{"SITE":"AFETR","PERIOD":"92.453","DECAY_DATE":null,"ELEMENT_SET_NO":"999","CENTER_NAME":"EARTH","ARG_OF_PERICENTER":"33.5923","REF_FRAME":"TEME","INCLINATION":"53.2175","FILE":"3455439","EPOCH":"2022-05-20T22:00:00.999936","MEAN_MOTION":"15.57540740","BSTAR":"-0.01041100000000","MEAN_ANOMALY":"3.7255","MEAN_MOTION_DOT":"-0.00715036","PERIAPSIS":"393.712","ECCENTRICITY":"0.00015760","MEAN_MOTION_DDOT":"0.0000000000000","TIME_SYSTEM":"UTC","RCS_SIZE":"LARGE","EPHEMERIS_TYPE":"0","RA_OF_ASC_NODE":"230.7196","CLASSIFICATION_TYPE":"U","LAUNCH_DATE":"2022-04-21","APOAPSIS":"395.846","MEAN_ELEMENT_THEORY":"SGP4","GP_ID":"204048556","OBJECT_ID":"2022-041G","NORAD_CAT_ID":"52267","OBJECT_TYPE":"PAYLOAD","COUNTRY_CODE":"US","REV_AT_EPOCH":"582","SEMIMAJOR_AXIS":"6772.914","TLE_LINE1":"1 52267U 22041G   22140.91667824 -.00715036  00000-0 -10411-1 0  9995","TLE_LINE2":"2 52267  53.2175 230.7196 0001576  33.5923   3.7255 15.57540740  5824","OBJECT_NAME":"STARLINK-3748"},{"DECAY_DATE":null,"SITE":"AFETR","PERIOD":"92.453","ELEMENT_SET_NO":"999","INCLINATION":"53.2175","REF_FRAME":"TEME","FILE":"3455439","CENTER_NAME":"EARTH","ARG_OF_PERICENTER":"37.7931","EPOCH":"2022-05-20T22:00:00.999936","MEAN_MOTION":"15.57554770","BSTAR":"-0.01040900000000","MEAN_MOTION_DOT":"-0.00715242","PERIAPSIS":"393.726","MEAN_ANOMALY":"1.8095","ECCENTRICITY":"0.00014950","TIME_SYSTEM":"UTC","MEAN_MOTION_DDOT":"0.0000000000000","RCS_SIZE":"LARGE","RA_OF_ASC_NODE":"230.7442","LAUNCH_DATE":"2022-04-21","CLASSIFICATION_TYPE":"U","EPHEMERIS_TYPE":"0","APOAPSIS":"395.751","MEAN_ELEMENT_THEORY":"SGP4","SEMIMAJOR_AXIS":"6772.873","REV_AT_EPOCH":"582","NORAD_CAT_ID":"52268","GP_ID":"204048553","OBJECT_ID":"2022-041H","OBJECT_TYPE":"PAYLOAD","COUNTRY_CODE":"US","TLE_LINE1":"1 52268U 22041H   22140.91667824 -.00715242  00000-0 -10409-1 0  9992","TLE_LINE2":"2 52268  53.2175 230.7442 0001495  37.7931   1.8095 15.57554770  5823","OBJECT_NAME":"STARLINK-3746"},{"INCLINATION":"53.2175","REF_FRAME":"TEME","FILE":"3455439","ARG_OF_PERICENTER":"31.8298","CENTER_NAME":"EARTH","ELEMENT_SET_NO":"999","DECAY_DATE":null,"SITE":"AFETR","PERIOD":"92.453","MEAN_MOTION_DOT":"-0.00715102","PERIAPSIS":"393.652","MEAN_ANOMALY":"6.2496","BSTAR":"-0.01041000000000","MEAN_MOTION":"15.57545390","EPOCH":"2022-05-20T22:00:00.999936","RA_OF_ASC_NODE":"230.7279","CLASSIFICATION_TYPE":"U","LAUNCH_DATE":"2022-04-21","EPHEMERIS_TYPE":"0","RCS_SIZE":"LARGE","TIME_SYSTEM":"UTC","MEAN_MOTION_DDOT":"0.0000000000000","ECCENTRICITY":"0.00016440","OBJECT_NAME":"STARLINK-3791","TLE_LINE1":"1 52269U 22041J   22140.91667824 -.00715102  00000-0 -10410-1 0  9990","TLE_LINE2":"2 52269  53.2175 230.7279 0001644  31.8298   6.2496 15.57545390  5821","REV_AT_EPOCH":"582","SEMIMAJOR_AXIS":"6772.901","GP_ID":"204048557","NORAD_CAT_ID":"52269","OBJECT_ID":"2022-041J","OBJECT_TYPE":"PAYLOAD","COUNTRY_CODE":"US","APOAPSIS":"395.879","MEAN_ELEMENT_THEORY":"SGP4"},{"TLE_LINE2":"2 52270  53.2174 230.7490 0001601  30.7081  10.1073 15.57555138  5813","TLE_LINE1":"1 52270U 22041K   22140.91667824 -.00714767  00000-0 -10401-1 0  9998","OBJECT_NAME":"STARLINK-3804","MEAN_ELEMENT_THEORY":"SGP4","APOAPSIS":"395.822","OBJECT_TYPE":"PAYLOAD","COUNTRY_CODE":"US","GP_ID":"204048551","OBJECT_ID":"2022-041K","NORAD_CAT_ID":"52270","REV_AT_EPOCH":"581","SEMIMAJOR_AXIS":"6772.872","RCS_SIZE":"LARGE","EPHEMERIS_TYPE":"0","LAUNCH_DATE":"2022-04-21","CLASSIFICATION_TYPE":"U","RA_OF_ASC_NODE":"230.7490","ECCENTRICITY":"0.00016010","TIME_SYSTEM":"UTC","MEAN_MOTION_DDOT":"0.0000000000000","BSTAR":"-0.01040100000000","MEAN_ANOMALY":"10.1073","PERIAPSIS":"393.653","MEAN_MOTION_DOT":"-0.00714767","EPOCH":"2022-05-20T22:00:00.999936","MEAN_MOTION":"15.57555138","ELEMENT_SET_NO":"999","ARG_OF_PERICENTER":"30.7081","CENTER_NAME":"EARTH","FILE":"3455439","INCLINATION":"53.2174","REF_FRAME":"TEME","PERIOD":"92.453","SITE":"AFETR","DECAY_DATE":null},{"EPOCH":"2022-05-20T14:00:01.000224","MEAN_MOTION":"15.58061176","BSTAR":"-0.01024600000000","MEAN_ANOMALY":"297.9186","MEAN_MOTION_DOT":"-0.00717526","PERIAPSIS":"392.021","SITE":"AFETR","PERIOD":"92.423","DECAY_DATE":null,"ELEMENT_SET_NO":"999","ARG_OF_PERICENTER":"30.4970","CENTER_NAME":"EARTH","INCLINATION":"53.2175","REF_FRAME":"TEME","FILE":"3455160","APOAPSIS":"394.520","MEAN_ELEMENT_THEORY":"SGP4","NORAD_CAT_ID":"52271","GP_ID":"204044319","OBJECT_ID":"2022-041L","COUNTRY_CODE":"US","OBJECT_TYPE":"PAYLOAD","SEMIMAJOR_AXIS":"6771.406","REV_AT_EPOCH":"130","TLE_LINE1":"1 52271U 22041L   22140.58334491 -.00717526  00000-0 -10246-1 0  9996","TLE_LINE2":"2 52271  53.2175 232.3498 0001845  30.4970 297.9186 15.58061176  1300","OBJECT_NAME":"STARLINK-3788","ECCENTRICITY":"0.00018450","MEAN_MOTION_DDOT":"0.0000000000000","TIME_SYSTEM":"UTC","RCS_SIZE":"LARGE","EPHEMERIS_TYPE":"0","RA_OF_ASC_NODE":"232.3498","CLASSIFICATION_TYPE":"U","LAUNCH_DATE":"2022-04-21"},{"ELEMENT_SET_NO":"999","CENTER_NAME":"EARTH","ARG_OF_PERICENTER":"30.7855","FILE":"3455160","INCLINATION":"53.2175","REF_FRAME":"TEME","PERIOD":"92.422","SITE":"AFETR","DECAY_DATE":null,"BSTAR":"-0.01024300000000","MEAN_ANOMALY":"301.1106","PERIAPSIS":"391.981","MEAN_MOTION_DOT":"-0.00717696","EPOCH":"2022-05-20T14:00:01.000224","MEAN_MOTION":"15.58075712","RCS_SIZE":"LARGE","EPHEMERIS_TYPE":"0","CLASSIFICATION_TYPE":"U","LAUNCH_DATE":"2022-04-21","RA_OF_ASC_NODE":"232.3685","ECCENTRICITY":"0.00018420","MEAN_MOTION_DDOT":"0.0000000000000","TIME_SYSTEM":"UTC","TLE_LINE2":"2 52272  53.2175 232.3685 0001842  30.7855 301.1106 15.58075712  1302","TLE_LINE1":"1 52272U 22041M   22140.58334491 -.00717696  00000-0 -10243-1 0  9992","OBJECT_NAME":"STARLINK-3781","MEAN_ELEMENT_THEORY":"SGP4","APOAPSIS":"394.476","COUNTRY_CODE":"US","OBJECT_TYPE":"PAYLOAD","GP_ID":"204043672","NORAD_CAT_ID":"52272","OBJECT_ID":"2022-041M","REV_AT_EPOCH":"130","SEMIMAJOR_AXIS":"6771.364"},{"EPHEMERIS_TYPE":"0","LAUNCH_DATE":"2022-04-21","CLASSIFICATION_TYPE":"U","RA_OF_ASC_NODE":"230.1626","RCS_SIZE":"LARGE","TIME_SYSTEM":"UTC","MEAN_MOTION_DDOT":"0.0000000000000","ECCENTRICITY":"0.00031520","OBJECT_NAME":"STARLINK-3782","TLE_LINE2":"2 52273  53.2139 230.1626 0003152   9.3114 319.8736 15.73210481  5838","TLE_LINE1":"1 52273U 22041N   22140.91667824 -.00062553  00000-0 -44423-3 0  9993","COUNTRY_CODE":"US","OBJECT_TYPE":"PAYLOAD","GP_ID":"204048580","OBJECT_ID":"2022-041N","NORAD_CAT_ID":"52273","SEMIMAJOR_AXIS":"6727.865","REV_AT_EPOCH":"583","MEAN_ELEMENT_THEORY":"SGP4","APOAPSIS":"351.851","ARG_OF_PERICENTER":"9.3114","CENTER_NAME":"EARTH","FILE":"3455441","INCLINATION":"53.2139","REF_FRAME":"TEME","ELEMENT_SET_NO":"999","PERIOD":"91.533","SITE":"AFETR","DECAY_DATE":null,"MEAN_ANOMALY":"319.8736","PERIAPSIS":"347.610","MEAN_MOTION_DOT":"-0.00062553","BSTAR":"-0.00044423000000","MEAN_MOTION":"15.73210481","EPOCH":"2022-05-20T22:00:00.999936"}];
